satname,norad_id,inclination_deg,eccentricity,mean_motion_rev_per_day,perigee_km,apogee_km,l1,l2
STARLINK-1407,45703,53.0425,0.0009773,15.36958277,448.43191849938194,461.78818318495723,1 45703U 20035AY  25282.47333829  .00065016  00000+0  17656-2 0  9991,2 45703  53.0425 319.1651 0009773 320.8459  39.1836 15.36958277296878
STARLINK-1411,45706,53.0564,0.0001677,15.34134614,462.3447958261713,464.6394782387324,1 45706U 20035BB  25282.46095288  .00119292  00000+0  35152-2 0  9994,2 45706  53.0564 346.0967 0001677  50.7273 309.3877 15.34134614296485
STARLINK-1423,45710,53.056,0.0001513,15.06418977,546.1056003400081,548.2011932140722,1 45710U 20035BF  25282.49574720  .00008952  00000+0  61877-3 0  9999,2 45710  53.0560 355.3605 0001513  93.1591 266.9571 15.06418977296363
STARLINK-1433,45711,53.0548,0.0001327,15.0642062,546.2293759615304,548.0673466964263,1 45711U 20035BG  25282.47731051  .00006196  00000+0  43427-3 0  9999,2 45711  53.0548 355.4384 0001327  91.8229 268.2912 15.06420620296352
STARLINK-1434,45712,53.0533,0.0001494,15.13371671,524.8949924289282,526.9579265906286,1 45712U 20035BH  25282.49074825  .00018980  00000+0  10656-2 0  9992,2 45712  53.0533 352.7706 0001494 343.6736  16.4208 15.13371671296407
STARLINK-1465,45731,53.0545,0.0001133,15.0639273,546.4491950146985,548.0184840469356,1 45731U 20038B   25282.17875937  .00000829  00000+0  74525-4 0  9994,2 45731  53.0545 196.7779 0001133  80.2448 279.8669 15.06392730293359
STARLINK-1471,45735,53.0497,0.0003604,15.39737102,444.42634847945556,449.34582512042016,1 45735U 20038F   25282.03840553  .00023046  00000+0  58204-3 0  9990,2 45735  53.0497 143.0682 0003604 112.4229 247.7156 15.39737102294108
STARLINK-1474,45738,53.0376,0.0004689,15.6317196,375.33311098321064,381.6694863797147,1 45738U 20038J   25282.49402752  .00062366  00000+0  67041-3 0  9995,2 45738  53.0376 102.1966 0004689 187.1686 172.9261 15.63171960294712
STARLINK-1475,45739,53.0523,0.0002946,15.66796182,366.0904669905858,370.0653368107851,1 45739U 20038K   25282.39866997  .00202289  00000+0  18404-2 0  9998,2 45739  53.0523  70.2467 0002946 193.2139 166.8799 15.66796182295163
STARLINK-1480,45741,53.0544,0.0001258,15.06387915,546.3773834622389,548.1198104784362,1 45741U 20038M   25282.49206811  .00002345  00000+0  17629-3 0  9995,2 45741  53.0544 195.3721 0001258  93.3021 266.8111 15.06387915293415
STARLINK-1500,45744,53.0412,0.0005127,15.26454088,482.90309403673473,489.94201340311974,1 45744U 20038Q   25282.70275479  .00017246  00000+0  66431-3 0  9999,2 45744  53.0412 176.3951 0005127 121.0973 239.0529 15.26454088293693
STARLINK-1504,45746,53.0275,0.0006522,15.36817884,451.06928800181686,459.9831182839962,1 45746U 20038S   25282.35768766  .00066922  00000+0  18263-2 0  9992,2 45746  53.0275 144.4811 0006522 101.5597 258.6137 15.36817884294105
STARLINK-1506,45747,53.0498,0.0004751,15.20583902,500.8084689167572,507.34794980869356,1 45747U 20038T   25282.70435234  .00007909  00000+0  37073-3 0  9994,2 45747  53.0498 177.9383 0004751 144.0310 216.1006 15.20583902293674
STARLINK-1464,45751,53.0537,0.000121,15.06389321,546.4063165927582,548.0822588643896,1 45751U 20038X   25282.42756477  .00010140  00000+0  69885-3 0  9990,2 45751  53.0537 175.6615 0001210  95.5346 264.5780 15.06389321293682
STARLINK-1477,45754,53.0523,0.0001386,15.06384754,546.29842534003,548.2181449130676,1 45754U 20038AA  25282.44228189 -.00011783  00000+0 -77375-3 0  9998,2 45754  53.0523 175.5937 0001386 101.2932 258.8213 15.06384754293688
STARLINK-1478,45755,53.0535,0.0001371,15.06386512,546.3034260692193,548.2023679789827,1 45755U 20038AB  25282.12901176  .00000753  00000+0  69456-4 0  9993,2 45755  53.0535 177.0031 0001371  81.6946 278.4198 15.06386512293622
STARLINK-1484,45756,53.0165,0.0003375,15.56573564,395.2955215908787,399.86913213651223,1 45756U 20038AC  25282.84241907  .00046517  00000+0  64593-3 0  9996,2 45756  53.0165  87.5406 0003375 158.1832 201.9323 15.56573564294940
STARLINK-1493,45759,53.0543,0.0001801,15.06383861,546.0137579066741,548.5082862742302,1 45759U 20038AF  25282.11794234 -.00002305  00000+0 -13595-3 0  9990,2 45759  53.0543 177.0524 0001801  82.0883 278.0310 15.06383861293621
STARLINK-1494,45760,53.055,0.0001518,15.48264796,420.7697455470761,422.83420702027706,1 45760U 20038AG  25282.68288693  .00391555  00000+0  69497-2 0  9998,2 45760  53.0550 166.4107 0001518 114.0708 246.0458 15.48264796293839
STARLINK-1502,45764,53.0526,0.0001378,15.06395001,546.2725640531071,548.1811943382136,1 45764U 20038AL  25282.68189707  .00011214  00000+0  77060-3 0  9995,2 45764  53.0526 174.5188 0001378  86.6389 273.4758 15.06395001293721
STARLINK-1470,45772,53.0446,0.0005194,15.16049499,514.2124623983791,521.3759557383592,1 45772U 20038AU  25282.62295020  .00016301  00000+0  85129-3 0  9991,2 45772  53.0446 148.8633 0005194 126.5941 233.5531 15.16049499294071
STARLINK-1482,45773,53.0532,0.0002244,15.06409241,545.6291938881077,548.7372776099128,1 45773U 20038AV  25282.84591381 -.00005081  00000+0 -32234-3 0  9999,2 45773  53.0532 153.7836 0002244  86.8714 273.2531 15.06409241294027
STARLINK-1485,45774,53.0427,9.14e-05,15.88613714,305.5577450443461,306.7796361245855,1 45774U 20038AW  25282.83772895  .00375873  00000+0  12611-2 0  9993,2 45774  53.0427  95.7283 0000914 197.9826 162.1167 15.88613714294834
STARLINK-1496,45780,53.0512,0.0001213,15.0639962,546.3726776624426,548.0527675051417,1 45780U 20038BC  25282.61369382  .00010024  00000+0  69091-3 0  9998,2 45780  53.0512 154.8259 0001213 100.8953 259.2172 15.06399620293978
STARLINK-1497,45781,53.0386,0.0011623,15.4724782,416.8742634191549,432.6883272885343,1 45781U 20038BD  25282.84266529  .00136186  00000+0  25881-2 0  9999,2 45781  53.0386 105.9828 0011623 140.6320 219.5533 15.47247820294692
STARLINK-1510,45784,53.035,0.0007883,15.61640527,377.58813183514576,388.24761094537826,1 45784U 20038BG  25282.17822047  .00204518  00000+0  22775-2 0  9995,2 45784  53.0350  87.8206 0007883 110.1856 250.0005 15.61640527294896
STARLINK-1513,45786,53.0543,0.0001627,15.06404771,546.0701837177066,548.3236873803335,1 45786U 20038BJ  25282.84221387  .00002751  00000+0  20346-3 0  9999,2 45786  53.0543 153.8004 0001627  87.8448 272.2727 15.06404771294029
STARLINK-1522,46027,53.0546,0.0001352,15.06434215,546.17040292824,548.0429888236049,1 46027U 20055A   25282.82284574 -.00005634  00000+0 -35932-3 0  9994,2 46027  53.0546  83.8832 0001352  92.6188 267.4956 15.06434215286142
